ORBCOMM FM108           
1 41187U 15081J   24365.85852937  .00003297  00000+0  75218-3 0  9999
2 41187  47.0022 181.6177 0003139 240.2972 119.7601 14.57667931482234
ORBCOMM FM117           
1 41188U 15081K   24365.89380573  .00002439  00000+0  56625-3 0  9994
2 41188  46.9982 180.2750 0003410 252.6634 107.3878 14.57657110482286
ORBCOMM FM116           
1 41189U 15081L   24365.88363305  .00003356  00000+0  76505-3 0  9996
2 41189  47.0012 270.1691 0002141 347.0111  13.0719 14.57669016481098
